{
  "norad_id": 53388,
  "name": "STARLINK-4522",
  "history": [
    {
      "epoch": "2026-03-28T14:26:39.750144Z",
      "apogee_km": 540.9879898818199,
      "perigee_km": 538.4878698821594,
      "latitude_deg": 4.227143374343204e-05,
      "longitude_deg": -3.4658393865769797,
      "height_km": 540.8719841037428,
      "semi_major_axis_km": 6917.874929881989,
      "eccentricity": 0.0001807,
      "inclination_deg": 53.2193,
      "raan_deg": 39.2197,
      "arg_perigee_deg": 101.0102,
      "mean_anomaly_deg": 259.1094,
      "mean_motion_rev_day": 15.08841786
    },
    {
      "epoch": "2026-03-29T03:09:45.340128Z",
      "apogee_km": 540.9299609097179,
      "perigee_km": 538.5626612406686,
      "latitude_deg": -5.9040485075302324e-05,
      "longitude_deg": 162.86137488877327,
      "height_km": 540.8310988330558,
      "semi_major_axis_km": 6917.883311075193,
      "eccentricity": 0.0001711,
      "inclination_deg": 53.2184,
      "raan_deg": 36.8426,
      "arg_perigee_deg": 99.2093,
      "mean_anomaly_deg": 260.9092,
      "mean_motion_rev_day": 15.08839044
    }
  ]
}